IRIDIUM 26              
1 24903U 97043A   25077.73846369  .00001029  00000+0  34058-3 0  9992
2 24903  86.3999 148.6129 0002355  89.9518 270.1949 14.37033579443757
IRIDIUM 22              
1 24907U 97043E   25077.73332368  .00000886  00000+0  29916-3 0  9992
2 24907  86.4010 152.0718 0002208  94.7497 265.3952 14.35859796443795
DUMMY MASS 1            
1 24925U 97048A   25077.76854731  .00001279  00000+0  14019-3 0  9998
2 24925  86.3418 177.1054 0008962 103.1237 257.0988 14.86866559491697
DUMMY MASS 2            
1 24926U 97048B   25077.85028301  .00001376  00000+0  15196-3 0  9990
2 24926  86.3417 178.6560 0009607 112.0929 248.1316 14.86620228491483
IRIDIUM 29              
1 24944U 97051A   25077.78789068  .00001273  00000+0  42880-3 0  9996
2 24944  86.4035 181.7781 0002047 100.7494 259.3933 14.36349113440290
IRIDIUM 33              
1 24946U 97051C   25077.81091296  .00000915  00000+0  31565-3 0  9991
2 24946  86.3950 181.0220 0008413  28.1369 332.0280 14.34811760439781
IRIDIUM 28              
1 24948U 97051E   25077.81979029  .00001238  00000+0  40908-3 0  9992
2 24948  86.4041 179.3353 0002322  84.7646 275.3816 14.37279872440861
IRIDIUM 36              
1 24967U 97056C   25077.86636916  .00001455  00000+0  47999-3 0  9996
2 24967  86.4007 210.8922 0001883  89.1032 271.0381 14.37483672439241
