<?xml version="1.0" encoding="UTF-8"?>
<ndm xmlns:xsi="http://www.w3.org/2001/XMLSchema-instance" xsi:noNamespaceSchemaLocation="https://sanaregistry.org/r/ndmxml_unqualified/ndmxml-2.0.0-master-2.0.xsd">
<omm id="CCSDS_OMM_VERS" version="2.0">
<header><CREATION_DATE/><ORIGINATOR/></header><body><segment><metadata><OBJECT_NAME>IRIDIUM 26</OBJECT_NAME><OBJECT_ID>1997-043A</OBJECT_ID><CENTER_NAME>EARTH</CENTER_NAME><REF_FRAME>TEME</REF_FRAME><TIME_SYSTEM>UTC</TIME_SYSTEM><MEAN_ELEMENT_THEORY>SGP4</MEAN_ELEMENT_THEORY></metadata><data><meanElements><EPOCH>2025-03-18T17:43:23.262816</EPOCH><MEAN_MOTION>14.37033579</MEAN_MOTION><ECCENTRICITY>.0002355</ECCENTRICITY><INCLINATION>86.3999</INCLINATION><RA_OF_ASC_NODE>148.6129</RA_OF_ASC_NODE><ARG_OF_PERICENTER>89.9518</ARG_OF_PERICENTER><MEAN_ANOMALY>270.1949</MEAN_ANOMALY></meanElements><tleParameters><EPHEMERIS_TYPE>0</EPHEMERIS_TYPE><CLASSIFICATION_TYPE>U</CLASSIFICATION_TYPE><NORAD_CAT_ID>24903</NORAD_CAT_ID><ELEMENT_SET_NO>999</ELEMENT_SET_NO><REV_AT_EPOCH>44375</REV_AT_EPOCH><BSTAR>.34058E-3</BSTAR><MEAN_MOTION_DOT>.1029E-4</MEAN_MOTION_DOT><MEAN_MOTION_DDOT>0</MEAN_MOTION_DDOT></tleParameters></data></segment></body></omm>
<omm id="CCSDS_OMM_VERS" version="2.0">
<header><CREATION_DATE/><ORIGINATOR/></header><body><segment><metadata><OBJECT_NAME>IRIDIUM 22</OBJECT_NAME><OBJECT_ID>1997-043E</OBJECT_ID><CENTER_NAME>EARTH</CENTER_NAME><REF_FRAME>TEME</REF_FRAME><TIME_SYSTEM>UTC</TIME_SYSTEM><MEAN_ELEMENT_THEORY>SGP4</MEAN_ELEMENT_THEORY></metadata><data><meanElements><EPOCH>2025-03-18T17:35:59.165952</EPOCH><MEAN_MOTION>14.35859796</MEAN_MOTION><ECCENTRICITY>.0002208</ECCENTRICITY><INCLINATION>86.4010</INCLINATION><RA_OF_ASC_NODE>152.0718</RA_OF_ASC_NODE><ARG_OF_PERICENTER>94.7497</ARG_OF_PERICENTER><MEAN_ANOMALY>265.3952</MEAN_ANOMALY></meanElements><tleParameters><EPHEMERIS_TYPE>0</EPHEMERIS_TYPE><CLASSIFICATION_TYPE>U</CLASSIFICATION_TYPE><NORAD_CAT_ID>24907</NORAD_CAT_ID><ELEMENT_SET_NO>999</ELEMENT_SET_NO><REV_AT_EPOCH>44379</REV_AT_EPOCH><BSTAR>.29916E-3</BSTAR><MEAN_MOTION_DOT>.886E-5</MEAN_MOTION_DOT><MEAN_MOTION_DDOT>0</MEAN_MOTION_DDOT></tleParameters></data></segment></body></omm>
<omm id="CCSDS_OMM_VERS" version="2.0">
<header><CREATION_DATE/><ORIGINATOR/></header><body><segment><metadata><OBJECT_NAME>DUMMY MASS 1</OBJECT_NAME><OBJECT_ID>1997-048A</OBJECT_ID><CENTER_NAME>EARTH</CENTER_NAME><REF_FRAME>TEME</REF_FRAME><TIME_SYSTEM>UTC</TIME_SYSTEM><MEAN_ELEMENT_THEORY>SGP4</MEAN_ELEMENT_THEORY></metadata><data><meanElements><EPOCH>2025-03-18T18:26:42.487584</EPOCH><MEAN_MOTION>14.86866559</MEAN_MOTION><ECCENTRICITY>.0008962</ECCENTRICITY><INCLINATION>86.3418</INCLINATION><RA_OF_ASC_NODE>177.1054</RA_OF_ASC_NODE><ARG_OF_PERICENTER>103.1237</ARG_OF_PERICENTER><MEAN_ANOMALY>257.0988</MEAN_ANOMALY></meanElements><tleParameters><EPHEMERIS_TYPE>0</EPHEMERIS_TYPE><CLASSIFICATION_TYPE>U</CLASSIFICATION_TYPE><NORAD_CAT_ID>24925</NORAD_CAT_ID><ELEMENT_SET_NO>999</ELEMENT_SET_NO><REV_AT_EPOCH>49169</REV_AT_EPOCH><BSTAR>.14019E-3</BSTAR><MEAN_MOTION_DOT>.1279E-4</MEAN_MOTION_DOT><MEAN_MOTION_DDOT>0</MEAN_MOTION_DDOT></tleParameters></data></segment></body></omm>
<omm id="CCSDS_OMM_VERS" version="2.0">
<header><CREATION_DATE/><ORIGINATOR/></header><body><segment><metadata><OBJECT_NAME>DUMMY MASS 2</OBJECT_NAME><OBJECT_ID>1997-048B</OBJECT_ID><CENTER_NAME>EARTH</CENTER_NAME><REF_FRAME>TEME</REF_FRAME><TIME_SYSTEM>UTC</TIME_SYSTEM><MEAN_ELEMENT_THEORY>SGP4</MEAN_ELEMENT_THEORY></metadata><data><meanElements><EPOCH>2025-03-18T20:24:24.452064</EPOCH><MEAN_MOTION>14.86620228</MEAN_MOTION><ECCENTRICITY>.0009607</ECCENTRICITY><INCLINATION>86.3417</INCLINATION><RA_OF_ASC_NODE>178.6560</RA_OF_ASC_NODE><ARG_OF_PERICENTER>112.0929</ARG_OF_PERICENTER><MEAN_ANOMALY>248.1316</MEAN_ANOMALY></meanElements><tleParameters><EPHEMERIS_TYPE>0</EPHEMERIS_TYPE><CLASSIFICATION_TYPE>U</CLASSIFICATION_TYPE><NORAD_CAT_ID>24926</NORAD_CAT_ID><ELEMENT_SET_NO>999</ELEMENT_SET_NO><REV_AT_EPOCH>49148</REV_AT_EPOCH><BSTAR>.15196E-3</BSTAR><MEAN_MOTION_DOT>.1376E-4</MEAN_MOTION_DOT><MEAN_MOTION_DDOT>0</MEAN_MOTION_DDOT></tleParameters></data></segment></body></omm>
<omm id="CCSDS_OMM_VERS" version="2.0">
<header><CREATION_DATE/><ORIGINATOR/></header><body><segment><metadata><OBJECT_NAME>IRIDIUM 29</OBJECT_NAME><OBJECT_ID>1997-051A</OBJECT_ID><CENTER_NAME>EARTH</CENTER_NAME><REF_FRAME>TEME</REF_FRAME><TIME_SYSTEM>UTC</TIME_SYSTEM><MEAN_ELEMENT_THEORY>SGP4</MEAN_ELEMENT_THEORY></metadata><data><meanElements><EPOCH>2025-03-18T18:54:33.754752</EPOCH><MEAN_MOTION>14.36349113</MEAN_MOTION><ECCENTRICITY>.0002047</ECCENTRICITY><INCLINATION>86.4035</INCLINATION><RA_OF_ASC_NODE>181.7781</RA_OF_ASC_NODE><ARG_OF_PERICENTER>100.7494</ARG_OF_PERICENTER><MEAN_ANOMALY>259.3933</MEAN_ANOMALY></meanElements><tleParameters><EPHEMERIS_TYPE>0</EPHEMERIS_TYPE><CLASSIFICATION_TYPE>U</CLASSIFICATION_TYPE><NORAD_CAT_ID>24944</NORAD_CAT_ID><ELEMENT_SET_NO>999</ELEMENT_SET_NO><REV_AT_EPOCH>44029</REV_AT_EPOCH><BSTAR>.4288E-3</BSTAR><MEAN_MOTION_DOT>.1273E-4</MEAN_MOTION_DOT><MEAN_MOTION_DDOT>0</MEAN_MOTION_DDOT></tleParameters></data></segment></body></omm>
<omm id="CCSDS_OMM_VERS" version="2.0">
<header><CREATION_DATE/><ORIGINATOR/></header><body><segment><metadata><OBJECT_NAME>IRIDIUM 33</OBJECT_NAME><OBJECT_ID>1997-051C</OBJECT_ID><CENTER_NAME>EARTH</CENTER_NAME><REF_FRAME>TEME</REF_FRAME><TIME_SYSTEM>UTC</TIME_SYSTEM><MEAN_ELEMENT_THEORY>SGP4</MEAN_ELEMENT_THEORY></metadata><data><meanElements><EPOCH>2025-03-18T19:27:42.879744</EPOCH><MEAN_MOTION>14.34811760</MEAN_MOTION><ECCENTRICITY>.0008413</ECCENTRICITY><INCLINATION>86.3950</INCLINATION><RA_OF_ASC_NODE>181.0220</RA_OF_ASC_NODE><ARG_OF_PERICENTER>28.1369</ARG_OF_PERICENTER><MEAN_ANOMALY>332.0280</MEAN_ANOMALY></meanElements><tleParameters><EPHEMERIS_TYPE>0</EPHEMERIS_TYPE><CLASSIFICATION_TYPE>U</CLASSIFICATION_TYPE><NORAD_CAT_ID>24946</NORAD_CAT_ID><ELEMENT_SET_NO>999</ELEMENT_SET_NO><REV_AT_EPOCH>43978</REV_AT_EPOCH><BSTAR>.31565E-3</BSTAR><MEAN_MOTION_DOT>.915E-5</MEAN_MOTION_DOT><MEAN_MOTION_DDOT>0</MEAN_MOTION_DDOT></tleParameters></data></segment></body></omm>
<omm id="CCSDS_OMM_VERS" version="2.0">
<header><CREATION_DATE/><ORIGINATOR/></header><body><segment><metadata><OBJECT_NAME>IRIDIUM 28</OBJECT_NAME><OBJECT_ID>1997-051E</OBJECT_ID><CENTER_NAME>EARTH</CENTER_NAME><REF_FRAME>TEME</REF_FRAME><TIME_SYSTEM>UTC</TIME_SYSTEM><MEAN_ELEMENT_THEORY>SGP4</MEAN_ELEMENT_THEORY></metadata><data><meanElements><EPOCH>2025-03-18T19:40:29.881056</EPOCH><MEAN_MOTION>14.37279872</MEAN_MOTION><ECCENTRICITY>.0002322</ECCENTRICITY><INCLINATION>86.4041</INCLINATION><RA_OF_ASC_NODE>179.3353</RA_OF_ASC_NODE><ARG_OF_PERICENTER>84.7646</ARG_OF_PERICENTER><MEAN_ANOMALY>275.3816</MEAN_ANOMALY></meanElements><tleParameters><EPHEMERIS_TYPE>0</EPHEMERIS_TYPE><CLASSIFICATION_TYPE>U</CLASSIFICATION_TYPE><NORAD_CAT_ID>24948</NORAD_CAT_ID><ELEMENT_SET_NO>999</ELEMENT_SET_NO><REV_AT_EPOCH>44086</REV_AT_EPOCH><BSTAR>.40908E-3</BSTAR><MEAN_MOTION_DOT>.1238E-4</MEAN_MOTION_DOT><MEAN_MOTION_DDOT>0</MEAN_MOTION_DDOT></tleParameters></data></segment></body></omm>
<omm id="CCSDS_OMM_VERS" version="2.0">
<header><CREATION_DATE/><ORIGINATOR/></header><body><segment><metadata><OBJECT_NAME>IRIDIUM 36</OBJECT_NAME><OBJECT_ID>1997-056C</OBJECT_ID><CENTER_NAME>EARTH</CENTER_NAME><REF_FRAME>TEME</REF_FRAME><TIME_SYSTEM>UTC</TIME_SYSTEM><MEAN_ELEMENT_THEORY>SGP4</MEAN_ELEMENT_THEORY></metadata><data><meanElements><EPOCH>2025-03-18T20:47:34.295424</EPOCH><MEAN_MOTION>14.37483672</MEAN_MOTION><ECCENTRICITY>.0001883</ECCENTRICITY><INCLINATION>86.4007</INCLINATION><RA_OF_ASC_NODE>210.8922</RA_OF_ASC_NODE><ARG_OF_PERICENTER>89.1032</ARG_OF_PERICENTER><MEAN_ANOMALY>271.0381</MEAN_ANOMALY></meanElements><tleParameters><EPHEMERIS_TYPE>0</EPHEMERIS_TYPE><CLASSIFICATION_TYPE>U</CLASSIFICATION_TYPE><NORAD_CAT_ID>24967</NORAD_CAT_ID><ELEMENT_SET_NO>999</ELEMENT_SET_NO><REV_AT_EPOCH>43924</REV_AT_EPOCH><BSTAR>.47999E-3</BSTAR><MEAN_MOTION_DOT>.1455E-4</MEAN_MOTION_DOT><MEAN_MOTION_DDOT>0</MEAN_MOTION_DDOT></tleParameters></data></segment></body></omm>

</ndm>
